OBJECT_NAME,OBJECT_ID,EPOCH,MEAN_MOTION,ECCENTRICITY,INCLINATION,RA_OF_ASC_NODE,ARG_OF_PERICENTER,MEAN_ANOMALY,EPHEMERIS_TYPE,CLASSIFICATION_TYPE,NORAD_CAT_ID,ELEMENT_SET_NO,REV_AT_EPOCH,BSTAR,MEAN_MOTION_DOT,MEAN_MOTION_DDOT
FENGYUN 1C DEB,1999-025AWF,2025-04-06T08:31:43.619808,13.76648258,.0192643,98.3886,126.4110,228.0974,143.4234,0,U,30845,999,90798,.50528E-3,.531E-5,0
FENGYUN 1C DEB,1999-025AWG,2025-04-06T21:27:57.142368,14.39961383,.0054481,99.3020,248.0577,347.6567,164.6896,0,U,30846,999,94332,.15194E-2,.4817E-4,0
FENGYUN 1C DEB,1999-025AWH,2025-04-06T03:59:54.545856,14.14942394,.0065861,98.7128,261.4643,325.7713,88.6206,0,U,30847,999,92509,.33264E-2,.6529E-4,0
FENGYUN 1C DEB,1999-025AWJ,2025-04-05T10:35:12.929568,14.32621987,.0044062,99.0672,278.4228,348.7199,11.2991,0,U,30848,999,93706,.275E-2,.7511E-4,0
FENGYUN 1C DEB,1999-025AWK,2025-04-04T02:25:58.462176,14.17263410,.0048414,99.0621,149.0842,5.4754,15.3628,0,U,30849,999,92792,.22504E-2,.4553E-4,0
FENGYUN 1C DEB,1999-025AWL,2025-04-06T15:07:36.095232,14.13989756,.0112061,98.4082,336.5652,198.2774,218.0140,0,U,30850,999,92261,.29687E-2,.5951E-4,0
FENGYUN 1C DEB,1999-025AWN,2025-04-06T19:07:04.346976,14.09783909,.005619,98.7507,121.5522,221.5549,138.1344,0,U,30852,999,92860,.8406E-3,.1456E-4,0
FENGYUN 1C DEB,1999-025AWS,2025-04-06T11:54:45.073728,14.37845540,.0098367,98.2096,290.9638,275.3765,116.3318,0,U,30856,999,92920,.8642E-2,.27619E-3,0
FENGYUN 1C DEB,1999-025AWT,2025-04-06T21:08:00.872160,14.41141367,.0042883,98.9491,72.4690,319.8572,39.9450,0,U,30857,999,93113,.11871E-1,.38863E-3,0
FENGYUN 1C DEB,1999-025AWU,2025-04-06T20:47:54.106944,14.17316186,.0031442,98.8233,156.5365,104.9681,319.5544,0,U,30858,999,93440,.75574E-3,.1491E-4,0
FENGYUN 1C DEB,1999-025AWV,2025-04-06T19:49:14.018016,14.43170741,.00363,98.9232,134.0498,61.9391,298.5460,0,U,30859,999,93423,.58246E-2,.19737E-3,0
FENGYUN 1C DEB,1999-025AWW,2025-04-05T14:54:27.194976,14.23484248,.0042096,98.9146,165.4849,190.0228,170.0115,0,U,30860,999,92941,.30423E-2,.694E-4,0
FENGYUN 1C DEB,1999-025AWY,2025-04-06T17:35:25.677312,14.37477581,.0059803,98.9579,175.9959,179.0036,312.8564,0,U,30862,999,93121,.55625E-2,.1699E-3,0
FENGYUN 1C DEB,1999-025AWZ,2025-04-06T15:01:20.732160,12.39616355,.0876669,99.1463,346.6319,56.5867,5.5127,0,U,30863,999,56640,.71737E-2,.3673E-4,0
FENGYUN 1C DEB,1999-025AXD,2025-04-06T06:08:53.590848,14.24914167,.0056949,97.8770,28.1120,23.6606,135.0465,0,U,30867,999,92966,.6307E-2,.1498E-3,0
FENGYUN 1C DEB,1999-025AXE,2025-04-06T11:26:39.429600,14.10955366,.0135409,98.2956,353.8840,212.2271,323.3709,0,U,30868,999,93181,.26008E-3,.469E-5,0
FENGYUN 1C DEB,1999-025AXJ,2025-04-06T01:38:34.823040,14.37807085,.004309,99.2197,130.3650,42.3779,12.9071,0,U,30872,999,94132,.195E-2,.5894E-4,0
FENGYUN 1C DEB,1999-025AXK,2025-04-06T18:30:33.234336,14.18877263,.0107879,98.6094,104.1395,289.9939,68.9646,0,U,30873,999,93647,.40086E-3,.841E-5,0
FENGYUN 1C DEB,1999-025AXL,2025-04-06T14:23:11.518368,14.19091865,.0042705,98.5133,137.1892,45.5532,107.9950,0,U,30874,999,93472,.84029E-3,.1731E-4,0
FENGYUN 1C DEB,1999-025AXN,2025-04-06T22:29:52.997280,13.98928107,.0066825,98.7931,91.8496,250.5827,138.3310,0,U,30876,999,92217,.4358E-3,.599E-5,0
FENGYUN 1C DEB,1999-025AXQ,2025-04-04T11:28:21.663264,14.11276345,.0039439,98.7209,103.0534,290.7327,233.4224,0,U,30878,999,92808,.13079E-2,.2337E-4,0
FENGYUN 1C DEB,1999-025AXR,2025-04-06T18:11:40.745472,14.54256287,.0239916,99.3690,280.9160,313.2661,44.8731,0,U,30879,999,58291,.39321E-2,.24512E-3,0
FENGYUN 1C DEB,1999-025AXS,2025-04-06T22:39:29.486592,14.23829973,.0024038,98.8066,168.2135,110.9496,249.4258,0,U,30880,999,93157,.25002E-2,.5698E-4,0
FENGYUN 1C DEB,1999-025AXU,2025-04-06T09:36:48.040128,14.80459644,.0170751,97.9719,152.5118,136.2646,225.2240,0,U,30882,999,95943,.25655E-2,.2522E-3,0
FENGYUN 1C DEB,1999-025AXV,2025-04-06T09:04:13.272096,14.14326919,.0111918,98.3910,148.8182,215.3931,206.8148,0,U,30883,999,93378,.3714E-3,.713E-5,0
FENGYUN 1C DEB,1999-025AXW,2025-04-05T20:42:15.072480,14.67176998,.0076801,98.8773,67.4916,35.9293,324.7038,0,U,30884,999,95002,.49256E-2,.29019E-3,0
FENGYUN 1C DEB,1999-025AXX,2025-04-06T18:17:30.372576,14.44207377,.0059148,99.0370,280.7726,242.3845,128.4122,0,U,30885,999,93363,.44354E-2,.15536E-3,0
FENGYUN 1C DEB,1999-025AXY,2025-04-06T21:44:16.323936,14.20909652,.0038251,99.2268,338.8633,28.2295,332.0943,0,U,30886,999,92846,.26268E-2,.5683E-4,0
FENGYUN 1C DEB,1999-025AXZ,2025-04-06T15:12:32.616576,14.42958772,.0269702,98.3969,155.8269,325.0512,33.3227,0,U,30887,999,94519,.9278E-3,.4771E-4,0
FENGYUN 1C DEB,1999-025AYA,2025-04-06T18:03:32.836032,14.86070863,.0094501,99.4635,26.5836,217.9305,141.5224,0,U,30888,999,96204,.19292E-2,.18277E-3,0
FENGYUN 1C DEB,1999-025AYD,2025-04-06T21:23:53.600640,14.05253931,.0058299,98.8072,151.7855,168.7185,5.1546,0,U,30891,999,92688,.12191E-2,.196E-4,0
FENGYUN 1C DEB,1999-025AYE,2025-04-06T12:06:00.262080,14.18388871,.0038432,99.6466,17.8268,166.3818,193.8400,0,U,30892,999,60755,.7997E-3,.1611E-4,0
FENGYUN 1C DEB,1999-025AYF,2025-04-06T21:54:01.824768,13.93240387,.0312034,98.2803,149.8987,71.9790,99.3510,0,U,30893,999,91650,.17253E-2,.333E-4,0
FENGYUN 1C DEB,1999-025AYH,2025-04-06T10:57:07.997184,14.30792571,.0220349,98.7432,163.4646,138.5092,236.1496,0,U,30895,999,94213,.10506E-2,.3542E-4,0
FENGYUN 1C DEB,1999-025AYL,2025-04-04T20:21:36.318528,14.99980664,.0058772,99.0543,321.6893,224.0885,135.5641,0,U,30898,999,95833,.4234E-2,.54881E-3,0
FENGYUN 1C DEB,1999-025AYM,2025-04-02T12:48:04.182336,14.30305914,.0032649,99.1927,335.3656,305.8804,172.9677,0,U,30899,999,93017,.35908E-2,.9336E-4,0
FENGYUN 1C DEB,1999-025AYR,2025-04-04T09:51:58.544928,13.97460686,.0096947,99.4059,334.5666,59.5213,301.5479,0,U,30903,999,65180,.134E-3,.15E-5,0
FENGYUN 1C DEB,1999-025AYT,2025-04-06T22:17:30.413472,14.15870984,.0059198,98.8930,172.3956,75.9060,284.8684,0,U,30905,999,92585,.36577E-2,.7282E-4,0
FENGYUN 1C DEB,1999-025AZA,2025-04-06T21:56:46.071168,14.81458916,.0069774,99.0011,265.8518,171.8414,188.3948,0,U,30912,999,95696,.36856E-2,.30158E-3,0
FENGYUN 1C DEB,1999-025AZB,2025-04-05T00:44:58.153632,14.04368737,.0049525,98.7684,130.7596,166.6791,193.5697,0,U,30913,999,92384,.12118E-2,.1908E-4,0
FENGYUN 1C DEB,1999-025AZC,2025-04-02T10:29:28.816512,13.07778286,.0503144,99.9854,352.6395,218.3821,138.0473,0,U,30914,999,55750,.19078E-2,.1149E-4,0
FENGYUN 1C DEB,1999-025AZD,2025-04-06T21:42:01.809504,14.22947337,.0055999,98.9494,168.7013,165.9067,194.3689,0,U,30915,999,92957,.34431E-2,.7835E-4,0
FENGYUN 1C DEB,1999-025AZE,2025-04-06T09:32:27.254688,14.07739733,.0063737,99.0246,156.9560,236.9312,184.8138,0,U,30916,999,92320,.23529E-2,.4013E-4,0
FENGYUN 1C DEB,1999-025AZG,2025-04-06T19:51:39.215808,13.95761154,.0160592,98.3950,230.4782,103.8708,49.4318,0,U,30918,999,91565,.29341E-2,.4424E-4,0
FENGYUN 1C DEB,1999-025AZH,2025-04-06T09:24:18.498528,14.90238513,.0016989,98.7899,259.3569,1.7694,358.3577,0,U,30919,999,94098,.12689E-1,.125544E-2,0
FENGYUN 1C DEB,1999-025AZJ,2025-04-06T08:08:52.571904,14.12579784,.0119009,98.9191,237.8804,90.1433,271.3376,0,U,30920,999,91554,.98102E-2,.19417E-3,0
FENGYUN 1C DEB,1999-025AZK,2025-04-06T18:08:23.406144,14.30058967,.0018202,98.8448,179.7003,53.8239,66.3521,0,U,30921,999,93248,.32046E-2,.8255E-4,0
FENGYUN 1C DEB,1999-025AZL,2025-04-06T19:27:07.602624,14.16708627,.0014992,98.6550,119.4773,53.8634,119.8749,0,U,30922,999,93024,.13024E-2,.2564E-4,0
FENGYUN 1C DEB,1999-025AZM,2025-04-06T17:41:23.828640,14.80641826,.0013698,98.8609,202.6865,155.8294,204.3560,0,U,30923,999,93608,.12323E-1,.96057E-3,0
FENGYUN 1C DEB,1999-025AZN,2025-04-06T17:50:05.848800,15.21482216,.0029979,98.9318,269.1691,282.0474,200.4970,0,U,30924,999,93625,.17908E-1,.430981E-2,0
FENGYUN 1C DEB,1999-025AZP,2025-04-06T06:44:26.546784,14.38631905,.0034254,98.8689,218.6237,255.3511,134.9001,0,U,30925,999,93466,.60429E-2,.18642E-3,0
FENGYUN 1C DEB,1999-025AZQ,2025-04-06T16:32:53.281248,14.86265651,.0174755,98.7916,10.3971,102.9108,259.1686,0,U,30926,999,97052,.71472E-3,.8238E-4,0
FENGYUN 1C DEB,1999-025AZR,2025-04-06T02:07:13.734624,14.07311093,.009867,99.1900,152.0688,344.2091,15.6006,0,U,30927,999,92156,.30248E-2,.5266E-4,0
FENGYUN 1C DEB,1999-025AZS,2025-04-06T19:48:40.235616,13.21625561,.045244,98.8705,222.9369,280.1041,238.1528,0,U,30928,999,87046,.29204E-2,.2025E-4,0
FENGYUN 1C DEB,1999-025AZU,2025-04-06T14:24:59.024160,14.36646601,.0111009,98.2410,135.7154,137.3064,15.6030,0,U,30930,999,94739,.79949E-3,.2483E-4,0
FENGYUN 1C DEB,1999-025AZV,2025-04-04T10:21:53.557632,14.00894975,.0093509,99.1957,150.4898,17.1528,354.5654,0,U,30931,999,92392,.14146E-2,.2151E-4,0
FENGYUN 1C DEB,1999-025AZW,2025-04-06T18:08:04.592544,14.23474534,.0059371,98.9040,26.0497,295.6753,63.8300,0,U,30932,999,92834,.43016E-2,.9923E-4,0
FENGYUN 1C DEB,1999-025AZX,2025-04-06T21:05:00.830976,14.29532328,.0082868,99.0487,68.5495,332.7767,81.1977,0,U,30933,999,92294,.10103E-1,.26858E-3,0
FENGYUN 1C DEB,1999-025AZY,2025-04-06T16:45:46.327968,13.45953570,.0346547,98.7831,4.2354,358.3767,1.6218,0,U,30934,999,88343,.47285E-2,.4025E-4,0
FENGYUN 1C DEB,1999-025BAA,2025-04-06T21:30:26.260128,14.22733689,.0045759,98.6044,133.6354,296.6579,240.0611,0,U,30936,999,93579,.92456E-3,.2051E-4,0
FENGYUN 1C DEB,1999-025BAB,2025-04-06T21:19:28.401888,13.95503281,.0075286,99.1195,152.2464,16.5874,158.2888,0,U,30937,999,92231,.23537E-3,.283E-5,0
FENGYUN 1C DEB,1999-025BAC,2025-04-05T19:32:43.562112,14.19390612,.0046023,98.6039,116.5538,349.1187,185.9747,0,U,30938,999,93559,.69855E-3,.1441E-4,0
FENGYUN 1C DEB,1999-025BAE,2025-04-05T19:54:36.154368,14.07869903,.0040996,98.6231,107.3268,355.0157,130.4358,0,U,30940,999,92601,.96417E-3,.1606E-4,0
FENGYUN 1C DEB,1999-025BAF,2025-04-06T20:20:16.611072,14.28518753,.0034582,98.5625,318.0810,331.9726,27.9593,0,U,30941,999,93055,.33434E-2,.8398E-4,0
